SL-16 R/B               
1 25400U 98043G   26034.49176973  .00000072  00000+0  48852-4 0  9995
2 25400  98.8199 347.6253 0010849 111.2668 248.9671 14.26041088434118
SL-16 R/B               
1 25407U 98045B   26035.09305991 -.00000225  00000+0 -89402-4 0  9993
2 25407  71.0090 252.2273 0005175  71.1450 289.0234 14.16185623422346
ISS (ZARYA)             
1 25544U 98067A   26034.88863058  .00010620  00000+0  20471-3 0  9996
2 25544  51.6315 239.4484 0011129  61.8022 298.4089 15.48375417551095
CZ-4B R/B               
1 25732U 99025C   26035.15637528  .00000071  00000+0  55103-4 0  9992
2 25732  98.6690  80.2221 0038188  81.7806 347.0352 14.18258435383416
OKEAN-O                 
1 25860U 99039A   26035.12501315  .00000751  00000+0  10556-3 0  9997
2 25860  97.9514  95.3454 0001939  90.1970 269.9464 14.80277591429421
SL-16 R/B               
1 25861U 99039B   26035.13662362  .00000683  00000+0  93496-4 0  9998
2 25861  98.0036  94.2706 0014997  11.7387 348.4172 14.81682171431898
DELTA 2 R/B             
1 25876U 99041E   26035.16871439  .00002270  00000+0  40246-3 0  9995
2 25876  51.7644  75.1394 0502490 249.3906 105.2455 14.11695937358294
HELIOS 1B               
1 25977U 99064A   26035.21729351  .00002258  00000+0  25519-3 0  9995
2 25977  98.1731 296.4722 0001853 121.0721 239.0677 14.87555118680287
TERRA                   
1 25994U 99068A   26035.14891681  .00000511  00000+0  11335-3 0  9997
2 25994  97.9663  89.8528 0001020 305.4522  76.2521 14.60976629390189
SL-16 R/B               
1 26070U 00006B   26034.88777567  .00000102  00000+0  76064-4 0  9990
2 26070  71.0026 168.9085 0018482 237.4366 122.4973 14.15820095343771
TITAN 4B R/B            
1 26474U 00047B   26035.23287576  .00004237  00000+0  26948-3 0  9997
2 26474  67.9898 134.5692 0036834  76.8310 283.6945 15.09278051387868
ENVISAT                 
1 27386U 02009A   26034.63290004  .00000147  00000+0  61497-4 0  9998
2 27386  98.3672 349.0538 0001300  91.3709  82.5982 14.39023472254277
