CCSDS_OMM_VERS = 2.0
CREATION_DATE  = 
ORIGINATOR     = 

OBJECT_NAME    = SL-16 R/B
OBJECT_ID      = 1998-043G
CENTER_NAME    = EARTH
REF_FRAME      = TEME
TIME_SYSTEM    = UTC
MEAN_ELEMENT_THEORY = SGP/SGP4

EPOCH          = 2026-02-03T11:48:08.904672
MEAN_MOTION    = 14.26041088
ECCENTRICITY   = .00108497
INCLINATION    = 98.8199
RA_OF_ASC_NODE = 347.6253
ARG_OF_PERICENTER = 111.2668
MEAN_ANOMALY   = 248.9671

EPHEMERIS_TYPE = 0
CLASSIFICATION_TYPE = U
NORAD_CAT_ID   = 25400
ELEMENT_SET_NO = 999
REV_AT_EPOCH   = 43411
BSTAR          = .48851927E-4
MEAN_MOTION_DOT = .72E-6
MEAN_MOTION_DDOT = 0

CCSDS_OMM_VERS = 2.0
CREATION_DATE  = 
ORIGINATOR     = 

OBJECT_NAME    = SL-16 R/B
OBJECT_ID      = 1998-045B
CENTER_NAME    = EARTH
REF_FRAME      = TEME
TIME_SYSTEM    = UTC
MEAN_ELEMENT_THEORY = SGP/SGP4

EPOCH          = 2026-02-04T02:14:00.376224
MEAN_MOTION    = 14.16185623
ECCENTRICITY   = .0005175
INCLINATION    = 71.0090
RA_OF_ASC_NODE = 252.2273
ARG_OF_PERICENTER = 71.1450
MEAN_ANOMALY   = 289.0234

EPHEMERIS_TYPE = 0
CLASSIFICATION_TYPE = U
NORAD_CAT_ID   = 25407
ELEMENT_SET_NO = 999
REV_AT_EPOCH   = 42234
BSTAR          = -.89402E-4
MEAN_MOTION_DOT = -.225E-5
MEAN_MOTION_DDOT = 0

CCSDS_OMM_VERS = 2.0
CREATION_DATE  = 
ORIGINATOR     = 

OBJECT_NAME    = ISS (ZARYA)
OBJECT_ID      = 1998-067A
CENTER_NAME    = EARTH
REF_FRAME      = TEME
TIME_SYSTEM    = UTC
MEAN_ELEMENT_THEORY = SGP/SGP4

EPOCH          = 2026-02-03T21:19:37.682112
MEAN_MOTION    = 15.48375417
ECCENTRICITY   = .0011129
INCLINATION    = 51.6315
RA_OF_ASC_NODE = 239.4484
ARG_OF_PERICENTER = 61.8022
MEAN_ANOMALY   = 298.4089

EPHEMERIS_TYPE = 0
CLASSIFICATION_TYPE = U
NORAD_CAT_ID   = 25544
ELEMENT_SET_NO = 999
REV_AT_EPOCH   = 55109
BSTAR          = .20471E-3
MEAN_MOTION_DOT = .1062E-3
MEAN_MOTION_DDOT = 0

CCSDS_OMM_VERS = 2.0
CREATION_DATE  = 
ORIGINATOR     = 

OBJECT_NAME    = CZ-4B R/B
OBJECT_ID      = 1999-025C
CENTER_NAME    = EARTH
REF_FRAME      = TEME
TIME_SYSTEM    = UTC
MEAN_ELEMENT_THEORY = SGP/SGP4

EPOCH          = 2026-02-04T03:45:10.824192
MEAN_MOTION    = 14.18258435
ECCENTRICITY   = .0038188
INCLINATION    = 98.6690
RA_OF_ASC_NODE = 80.2221
ARG_OF_PERICENTER = 81.7806
MEAN_ANOMALY   = 347.0352

EPHEMERIS_TYPE = 0
CLASSIFICATION_TYPE = U
NORAD_CAT_ID   = 25732
ELEMENT_SET_NO = 999
REV_AT_EPOCH   = 38341
BSTAR          = .55103E-4
MEAN_MOTION_DOT = .71E-6
MEAN_MOTION_DDOT = 0

CCSDS_OMM_VERS = 2.0
CREATION_DATE  = 
ORIGINATOR     = 

OBJECT_NAME    = OKEAN-O
OBJECT_ID      = 1999-039A
CENTER_NAME    = EARTH
REF_FRAME      = TEME
TIME_SYSTEM    = UTC
MEAN_ELEMENT_THEORY = SGP/SGP4

EPOCH          = 2026-02-04T03:00:01.136160
MEAN_MOTION    = 14.80277591
ECCENTRICITY   = .0001939
INCLINATION    = 97.9514
RA_OF_ASC_NODE = 95.3454
ARG_OF_PERICENTER = 90.1970
MEAN_ANOMALY   = 269.9464

EPHEMERIS_TYPE = 0
CLASSIFICATION_TYPE = U
NORAD_CAT_ID   = 25860
ELEMENT_SET_NO = 999
REV_AT_EPOCH   = 42942
BSTAR          = .10556E-3
MEAN_MOTION_DOT = .751E-5
MEAN_MOTION_DDOT = 0

CCSDS_OMM_VERS = 2.0
CREATION_DATE  = 
ORIGINATOR     = 

OBJECT_NAME    = SL-16 R/B
OBJECT_ID      = 1999-039B
CENTER_NAME    = EARTH
REF_FRAME      = TEME
TIME_SYSTEM    = UTC
MEAN_ELEMENT_THEORY = SGP/SGP4

EPOCH          = 2026-02-04T03:16:44.280768
MEAN_MOTION    = 14.81682171
ECCENTRICITY   = .0014997
INCLINATION    = 98.0036
RA_OF_ASC_NODE = 94.2706
ARG_OF_PERICENTER = 11.7387
MEAN_ANOMALY   = 348.4172

EPHEMERIS_TYPE = 0
CLASSIFICATION_TYPE = U
NORAD_CAT_ID   = 25861
ELEMENT_SET_NO = 999
REV_AT_EPOCH   = 43189
BSTAR          = .93496E-4
MEAN_MOTION_DOT = .683E-5
MEAN_MOTION_DDOT = 0

CCSDS_OMM_VERS = 2.0
CREATION_DATE  = 
ORIGINATOR     = 

OBJECT_NAME    = DELTA 2 R/B
OBJECT_ID      = 1999-041E
CENTER_NAME    = EARTH
REF_FRAME      = TEME
TIME_SYSTEM    = UTC
MEAN_ELEMENT_THEORY = SGP/SGP4

EPOCH          = 2026-02-04T04:02:56.923296
MEAN_MOTION    = 14.11695937
ECCENTRICITY   = .050249
INCLINATION    = 51.7644
RA_OF_ASC_NODE = 75.1394
ARG_OF_PERICENTER = 249.3906
MEAN_ANOMALY   = 105.2455

EPHEMERIS_TYPE = 0
CLASSIFICATION_TYPE = U
NORAD_CAT_ID   = 25876
ELEMENT_SET_NO = 999
REV_AT_EPOCH   = 35829
BSTAR          = .40246E-3
MEAN_MOTION_DOT = .227E-4
MEAN_MOTION_DDOT = 0

CCSDS_OMM_VERS = 2.0
CREATION_DATE  = 
ORIGINATOR     = 

OBJECT_NAME    = HELIOS 1B
OBJECT_ID      = 1999-064A
CENTER_NAME    = EARTH
REF_FRAME      = TEME
TIME_SYSTEM    = UTC
MEAN_ELEMENT_THEORY = SGP/SGP4

EPOCH          = 2026-02-04T05:12:54.159264
MEAN_MOTION    = 14.87555118
ECCENTRICITY   = .0001853
INCLINATION    = 98.1731
RA_OF_ASC_NODE = 296.4722
ARG_OF_PERICENTER = 121.0721
MEAN_ANOMALY   = 239.0677

EPHEMERIS_TYPE = 0
CLASSIFICATION_TYPE = U
NORAD_CAT_ID   = 25977
ELEMENT_SET_NO = 999
REV_AT_EPOCH   = 68028
BSTAR          = .25519E-3
MEAN_MOTION_DOT = .2258E-4
MEAN_MOTION_DDOT = 0

CCSDS_OMM_VERS = 2.0
CREATION_DATE  = 
ORIGINATOR     = 

OBJECT_NAME    = TERRA
OBJECT_ID      = 1999-068A
CENTER_NAME    = EARTH
REF_FRAME      = TEME
TIME_SYSTEM    = UTC
MEAN_ELEMENT_THEORY = SGP/SGP4

EPOCH          = 2026-02-04T03:34:26.412384
MEAN_MOTION    = 14.60976629
ECCENTRICITY   = .000102
INCLINATION    = 97.9663
RA_OF_ASC_NODE = 89.8528
ARG_OF_PERICENTER = 305.4522
MEAN_ANOMALY   = 76.2521

EPHEMERIS_TYPE = 0
CLASSIFICATION_TYPE = U
NORAD_CAT_ID   = 25994
ELEMENT_SET_NO = 999
REV_AT_EPOCH   = 39018
BSTAR          = .11335E-3
MEAN_MOTION_DOT = .511E-5
MEAN_MOTION_DDOT = 0

CCSDS_OMM_VERS = 2.0
CREATION_DATE  = 
ORIGINATOR     = 

OBJECT_NAME    = SL-16 R/B
OBJECT_ID      = 2000-006B
CENTER_NAME    = EARTH
REF_FRAME      = TEME
TIME_SYSTEM    = UTC
MEAN_ELEMENT_THEORY = SGP/SGP4

EPOCH          = 2026-02-03T21:18:23.817888
MEAN_MOTION    = 14.15820095
ECCENTRICITY   = .0018482
INCLINATION    = 71.0026
RA_OF_ASC_NODE = 168.9085
ARG_OF_PERICENTER = 237.4366
MEAN_ANOMALY   = 122.4973

EPHEMERIS_TYPE = 0
CLASSIFICATION_TYPE = U
NORAD_CAT_ID   = 26070
ELEMENT_SET_NO = 999
REV_AT_EPOCH   = 34377
BSTAR          = .76064E-4
MEAN_MOTION_DOT = .102E-5
MEAN_MOTION_DDOT = 0

CCSDS_OMM_VERS = 2.0
CREATION_DATE  = 
ORIGINATOR     = 

OBJECT_NAME    = TITAN 4B R/B
OBJECT_ID      = 2000-047B
CENTER_NAME    = EARTH
REF_FRAME      = TEME
TIME_SYSTEM    = UTC
MEAN_ELEMENT_THEORY = SGP/SGP4

EPOCH          = 2026-02-04T05:35:20.465664
MEAN_MOTION    = 15.09278051
ECCENTRICITY   = .0036834
INCLINATION    = 67.9898
RA_OF_ASC_NODE = 134.5692
ARG_OF_PERICENTER = 76.8310
MEAN_ANOMALY   = 283.6945

EPHEMERIS_TYPE = 0
CLASSIFICATION_TYPE = U
NORAD_CAT_ID   = 26474
ELEMENT_SET_NO = 999
REV_AT_EPOCH   = 38786
BSTAR          = .26948E-3
MEAN_MOTION_DOT = .4237E-4
MEAN_MOTION_DDOT = 0

CCSDS_OMM_VERS = 2.0
CREATION_DATE  = 
ORIGINATOR     = 

OBJECT_NAME    = ENVISAT
OBJECT_ID      = 2002-009A
CENTER_NAME    = EARTH
REF_FRAME      = TEME
TIME_SYSTEM    = UTC
MEAN_ELEMENT_THEORY = SGP/SGP4

EPOCH          = 2026-02-03T15:11:22.563456
MEAN_MOTION    = 14.39023472
ECCENTRICITY   = .00013
INCLINATION    = 98.3672
RA_OF_ASC_NODE = 349.0538
ARG_OF_PERICENTER = 91.3709
MEAN_ANOMALY   = 82.5982

EPHEMERIS_TYPE = 0
CLASSIFICATION_TYPE = U
NORAD_CAT_ID   = 27386
ELEMENT_SET_NO = 999
REV_AT_EPOCH   = 25427
BSTAR          = .61497479E-4
MEAN_MOTION_DOT = .147E-5
MEAN_MOTION_DDOT = 0

